"VILD": {
        "base": "280500Z 14001KT 3000 HZ NSC 25/18 Q1017=",
        "comparisons": {
          "olbs_amssdelhi_gov_in": "280500Z 14001KT 3000 HZ NSC 25/18 Q1017=",
          "olbs_amsschennai_gov_in": "280500Z 14001KT 3000 HZ NSC 25/18 Q1017=",
          "amssdelhi_gov_in": "280500Z 14001KT 3000 HZ NSC 25/18 Q1017 ="
        },
        "status": "partial_match"
      },
 
how come its mismatch?
